{"fetched_at":"2026-03-29T16:36:15Z","count":15609,"tles":[{"name":"STARLINK-4697","line1":"1 53726U 22107AC  26087.68924490  .00008206  00000+0  53286-3 0  9992","line2":"2 53726  53.2156 168.7041 0001093  51.1753 308.9337 15.08855472197284","category":"Starlink"}]}