{
  "norad_id": 53726,
  "name": "STARLINK-4697",
  "history": [
    {
      "epoch": "2026-03-28T16:32:30.759360",
      "apogee_km": 540.4526318814451,
      "perigee_km": 538.9395634263265,
      "latitude_deg": -44.1695969935905,
      "longitude_deg": -21.232489599846303,
      "semi_major_axis_km": 6917.8330976538855,
      "eccentricity": 0.00010936,
      "inclination_deg": 53.2156,
      "raan_deg": 168.7041,
      "arg_perigee_deg": 51.1753,
      "mean_anomaly_deg": 308.9337,
      "mean_motion_rev_day": 15.08855472
    }
  ]
}